STARLINK-37402          
1 69210U 26114AE  26171.27446240  .00298704  00000+0  14639-2 0  9992
2 69210  53.1573 186.5343 0001256 105.1401 254.9761 15.80891269  5266
STARLINK-37613          
1 69211U 26115A   26171.23372463  .00025747  00000+0  47330-3 0  9995
2 69211  97.2845 188.3773 0001803   1.8050 358.3208 15.49201335  5130
STARLINK-37713          
1 69212U 26115B   26170.98698779  .00038137  00000+0  69882-3 0  9991
2 69212  97.2849 188.2543 0002607 106.7412 253.4125 15.49213847  5100
STARLINK-37716          
1 69213U 26115C   26171.25002315 -.02993227  00000+0 -84338-1 0  9993
2 69213  97.2843 188.5695 0001891  99.2927  29.3517 15.40276386  5188
STARLINK-37620          
1 69214U 26115D   26171.31260256  .00051736  00000+0  94573-3 0  9991
2 69214  97.2864 188.4236 0000560 121.6485 238.4821 15.49218432  5147
STARLINK-37700          
1 69215U 26115E   26171.02763961  .00038749  00000+0  70983-3 0  9999
2 69215  97.2833 188.0452 0000662  97.1151 263.0176 15.49221530  5094
STARLINK-37766          
1 69216U 26115F   26171.25002315 -.03176686  00000+0 -88035-1 0  9997
2 69216  97.2866 188.6193 0001953  97.2829 149.6817 15.41022458  5187
STARLINK-37763          
1 69217U 26115G   26171.03029546  .00041098  00000+0  75267-3 0  9997
2 69217  97.2848 188.3480 0001894 113.2071 246.9380 15.49215164  5111
STARLINK-37724          
1 69218U 26115H   26171.25002315 -.01500930  00000+0 -49916-1 0  9995
2 69218  97.2848 188.6406 0001948  85.4465 211.7738 15.34440312  5183
STARLINK-37758          
1 69219U 26115J   26171.25002315 -.03809593  00000+0 -12219+0 0  9999
2 69219  97.2849 188.6546 0001377  75.5288 249.9803 15.36675640  5181
STARLINK-37201          
1 69220U 26115K   26171.25002315 -.01635863  00000+0 -53895-1 0  9993
2 69220  97.2851 188.6471 0002016 101.3532 210.8847 15.34491607  5186
STARLINK-37728          
1 69221U 26115L   26171.25002315 -.02395442  00000+0 -67232-1 0  9991
2 69221  97.2861 188.6576 0001722 102.5214 225.1561 15.40162318  5180
STARLINK-37760          
1 69222U 26115M   26171.25002315 -.05653340  00000+0 -17426+0 0  9997
2 69222  97.2858 188.6635 0001182  93.4402 260.9780 15.38236520  5184
STARLINK-37759          
1 69223U 26115N   26171.02876328  .00060360  00000+0  11020-2 0  9990
2 69223  97.2846 188.3499 0000951 119.7442 240.3904 15.49214447  5115
STARLINK-37725          
1 69224U 26115P   26171.02649595  .00032466  00000+0  59566-3 0  9999
2 69224  97.2845 188.3538 0000488  42.2994 317.8295 15.49212883  5122
STARLINK-37770          
1 69225U 26115Q   26171.25002315 -.02913279  00000+0 -88510-1 0  9991
2 69225  97.2859 188.6838 0001741  47.3180 349.5530 15.37881164  5181
STARLINK-37736          
1 69226U 26115R   26171.25002315 -.02417800  00000+0 -63511-1 0  9995
2 69226  97.2860 188.6836 0001360 108.1933 284.3281 15.42184206  5189
STARLINK-37737          
1 69227U 26115S   26171.25002315 -.02398107  00000+0 -69264-1 0  9995
2 69227  97.2845 188.7026 0001301  91.4638 344.7754 15.39303072  5205
STARLINK-37618          
1 69228U 26115T   26171.02993861  .00042080  00000+0  77025-3 0  9994
2 69228  97.2847 188.3483 0002606  93.8737 266.2812 15.49223745  5118
STARLINK-37679          
1 69229U 26115U   26171.28572106  .00063918  00000+0  11674-2 0  9998
2 69229  97.2847 188.6128 0000665  56.9881 303.1434 15.49190197  5150
STARLINK-37746          
1 69230U 26115V   26171.03553146  .00047910  00000+0  87511-3 0  9994
2 69230  97.2855 188.3408 0001184 132.3081 227.8271 15.49258054  5111
STARLINK-37557          
1 69231U 26115W   26171.31880402  .00034022  00000+0  62386-3 0  9997
2 69231  97.2845 188.5679 0001546  88.9271 271.2157 15.49218304  5156
STARLINK-37745          
1 69232U 26115X   26171.25002315 -.02428683  00000+0 -67560-1 0  9991
2 69232  97.2863 188.7326 0001543  66.8281  79.5173 15.40484414  5189
STARLINK-37739          
1 69233U 26115Y   26171.03746768  .00050685  00000+0  92622-3 0  9993
2 69233  97.2853 188.3385 0002438  89.0543 271.0988 15.49230183  5119
STARLINK-37755          
1 69234U 26115Z   26171.30821606  .00209054  00000+0  13658-2 0  9996
2 69234  97.2838 188.8888 0001986 104.0927 256.0559 15.75234563  5175
TJS-24                  
1 69235U 26116A   26171.12472351 -.00000236  00000+0  00000+0 0  9993
2 69235   0.0234 105.7185 0000342 300.8401 356.9676  1.00272229   252
STARLINK-37665          
1 69238U 26117A   26171.15146172  .00365717  00000+0  16785-2 0  9996
2 69238  53.1585 228.7423 0000725 101.6335 258.4770 15.82130821  3443
STARLINK-37558          
1 69239U 26117B   26171.15051177  .00304584  00000+0  14100-2 0  9991
2 69239  53.1569 228.7365 0001529  81.7486 278.3710 15.82109612  3448
STARLINK-37680          
1 69240U 26117C   26170.64366791  .00292281  00000+0  13592-2 0  9991
2 69240  53.1564 231.2623 0001215  72.4546 287.6610 15.82044413  3367
