OBJECT_NAME,OBJECT_ID,EPOCH,MEAN_MOTION,ECCENTRICITY,INCLINATION,RA_OF_ASC_NODE,ARG_OF_PERICENTER,MEAN_ANOMALY,EPHEMERIS_TYPE,CLASSIFICATION_TYPE,NORAD_CAT_ID,ELEMENT_SET_NO,REV_AT_EPOCH,BSTAR,MEAN_MOTION_DOT,MEAN_MOTION_DDOT
STARLINK-37402,2026-114AE,2026-06-20T06:35:13.551360,15.80891269,.00012561,53.1573,186.5343,105.1401,254.9761,0,U,69210,999,526,.14639313E-2,.298704E-2,0
STARLINK-37613,2026-115A,2026-06-20T05:36:33.808032,15.49201335,.00018032,97.2845,188.3773,1.8050,358.3208,0,U,69211,999,513,.47329705E-3,.25747E-3,0
STARLINK-37713,2026-115B,2026-06-19T23:41:15.745056,15.49213847,.00026074,97.2849,188.2543,106.7412,253.4125,0,U,69212,999,510,.69881686E-3,.38137E-3,0
STARLINK-37716,2026-115C,2026-06-20T06:00:02.000160,15.40276386,.00018913,97.2843,188.5695,99.2927,29.3517,0,U,69213,999,518,-.84338076E-1,-.2993227E-1,0
STARLINK-37620,2026-115D,2026-06-20T07:30:08.861184,15.49218432,.00005604,97.2864,188.4236,121.6485,238.4821,0,U,69214,999,514,.94572891E-3,.51736E-3,0
STARLINK-37700,2026-115E,2026-06-20T00:39:48.062304,15.49221530,.00006624,97.2833,188.0452,97.1151,263.0176,0,U,69215,999,509,.70983278E-3,.38749E-3,0
STARLINK-37766,2026-115F,2026-06-20T06:00:02.000160,15.41022458,.00019533,97.2866,188.6193,97.2829,149.6817,0,U,69216,999,518,-.88034513E-1,-.3176686E-1,0
STARLINK-37763,2026-115G,2026-06-20T00:43:37.527744,15.49215164,.00018941,97.2848,188.3480,113.2071,246.9380,0,U,69217,999,511,.75266698E-3,.41098E-3,0
STARLINK-37724,2026-115H,2026-06-20T06:00:02.000160,15.34440312,.00019489,97.2848,188.6406,85.4465,211.7738,0,U,69218,999,518,-.49915577E-1,-.150093E-1,0
STARLINK-37758,2026-115J,2026-06-20T06:00:02.000160,15.36675640,.00013772,97.2849,188.6546,75.5288,249.9803,0,U,69219,999,518,-.12218945E+0,-.3809593E-1,0
STARLINK-37201,2026-115K,2026-06-20T06:00:02.000160,15.34491607,.00020169,97.2851,188.6471,101.3532,210.8847,0,U,69220,999,518,-.53895019E-1,-.1635863E-1,0
STARLINK-37728,2026-115L,2026-06-20T06:00:02.000160,15.40162318,.00017223,97.2861,188.6576,102.5214,225.1561,0,U,69221,999,518,-.67231611E-1,-.2395442E-1,0
STARLINK-37760,2026-115M,2026-06-20T06:00:02.000160,15.38236520,.00011829,97.2858,188.6635,93.4402,260.9780,0,U,69222,999,518,-.17425708E+0,-.565334E-1,0
STARLINK-37759,2026-115N,2026-06-20T00:41:25.147392,15.49214447,.00009516,97.2846,188.3499,119.7442,240.3904,0,U,69223,999,511,.1102027E-2,.6036E-3,0
STARLINK-37725,2026-115P,2026-06-20T00:38:09.250080,15.49212883,.00004884,97.2845,188.3538,42.2994,317.8295,0,U,69224,999,512,.59565759E-3,.32466E-3,0
STARLINK-37770,2026-115Q,2026-06-20T06:00:02.000160,15.37881164,.00017413,97.2859,188.6838,47.3180,349.5530,0,U,69225,999,518,-.8851039E-1,-.2913279E-1,0
STARLINK-37736,2026-115R,2026-06-20T06:00:02.000160,15.42184206,.000136,97.2860,188.6836,108.1933,284.3281,0,U,69226,999,518,-.63511062E-1,-.24178E-1,0
STARLINK-37737,2026-115S,2026-06-20T06:00:02.000160,15.39303072,.00013011,97.2845,188.7026,91.4638,344.7754,0,U,69227,999,520,-.69263978E-1,-.2398107E-1,0
STARLINK-37618,2026-115T,2026-06-20T00:43:06.695904,15.49223745,.0002606,97.2847,188.3483,93.8737,266.2812,0,U,69228,999,511,.77025134E-3,.4208E-3,0
STARLINK-37679,2026-115U,2026-06-20T06:51:26.299584,15.49190197,.00006652,97.2847,188.6128,56.9881,303.1434,0,U,69229,999,515,.11673635E-2,.63918E-3,0
STARLINK-37746,2026-115V,2026-06-20T00:51:09.918144,15.49258054,.0001184,97.2855,188.3408,132.3081,227.8271,0,U,69230,999,511,.87510628E-3,.4791E-3,0
STARLINK-37557,2026-115W,2026-06-20T07:39:04.667328,15.49218304,.00015465,97.2845,188.5679,88.9271,271.2157,0,U,69231,999,515,.62386233E-3,.34022E-3,0
STARLINK-37745,2026-115X,2026-06-20T06:00:02.000160,15.40484414,.00015434,97.2863,188.7326,66.8281,79.5173,0,U,69232,999,518,-.67559532E-1,-.2428683E-1,0
STARLINK-37739,2026-115Y,2026-06-20T00:53:57.207552,15.49230183,.00024386,97.2853,188.3385,89.0543,271.0988,0,U,69233,999,511,.92622032E-3,.50685E-3,0
STARLINK-37755,2026-115Z,2026-06-20T07:23:49.867584,15.75234563,.0001986,97.2838,188.8888,104.0927,256.0559,0,U,69234,999,517,.13657641E-2,.209054E-2,0
TJS-24,2026-116A,2026-06-20T02:59:36.111264,1.00272229,.00003427,0.0234,105.7185,300.8401,356.9676,0,U,69235,999,25,0,-.236E-5,0
STARLINK-37665,2026-117A,2026-06-20T03:38:06.292608,15.82130821,.00007254,53.1585,228.7423,101.6335,258.4770,0,U,69238,999,344,.16785349E-2,.365717E-2,0
STARLINK-37558,2026-117B,2026-06-20T03:36:44.216928,15.82109612,.00015291,53.1569,228.7365,81.7486,278.3710,0,U,69239,999,344,.14099541E-2,.304584E-2,0
STARLINK-37680,2026-117C,2026-06-19T15:26:52.907424,15.82044413,.0001215,53.1564,231.2623,72.4546,287.6610,0,U,69240,999,336,.13591851E-2,.292281E-2,0
